{
    "links": {
        "self": "http://www.neowsapp.com/rest/v1/neo/54054580?api_key=iIulBulltgU6a56xZRHN4H3l9WmuAYTsLGpBGhQ2"
    },
    "id": "54054580",
    "neo_reference_id": "54054580",
    "name": "(2020 SO3)",
    "designation": "2020 SO3",
    "nasa_jpl_url": "http://ssd.jpl.nasa.gov/sbdb.cgi?sstr=54054580",
    "absolute_magnitude_h": 27.124,
    "estimated_diameter": {
        "kilometers": {
            "estimated_diameter_min": 0.0099943597,
            "estimated_diameter_max": 0.0223480677
        },
        "meters": {
            "estimated_diameter_min": 9.9943597191,
            "estimated_diameter_max": 22.3480677235
        },
        "miles": {
            "estimated_diameter_min": 0.0062102053,
            "estimated_diameter_max": 0.0138864412
        },
        "feet": {
            "estimated_diameter_min": 32.7898951408,
            "estimated_diameter_max": 73.32043451
        }
    },
    "is_potentially_hazardous_asteroid": false,
    "close_approach_data": [
        {
            "close_approach_date": "1954-09-03",
            "close_approach_date_full": "1954-Sep-03 15:47",
            "epoch_date_close_approach": -483696780000,
            "relative_velocity": {
                "kilometers_per_second": "7.6199028381",
                "kilometers_per_hour": "27431.6502170451",
                "miles_per_hour": "17044.9606584745"
            },
            "miss_distance": {
                "astronomical": "0.0501641593",
                "lunar": "19.5138579677",
                "kilometers": "7504451.381620691",
                "miles": "4663049.8600438958"
            },
            "orbiting_body": "Earth"
        },
        {
            "close_approach_date": "2020-09-18",
            "close_approach_date_full": "2020-Sep-18 09:29",
            "epoch_date_close_approach": 1600421340000,
            "relative_velocity": {
                "kilometers_per_second": "9.295554865",
                "kilometers_per_hour": "33463.9975140439",
                "miles_per_hour": "20793.2266775458"
            },
            "miss_distance": {
                "astronomical": "0.0022262136",
                "lunar": "0.8659970904",
                "kilometers": "333036.812725032",
                "miles": "206939.4795161616"
            },
            "orbiting_body": "Moon"
        },
        {
            "close_approach_date": "2020-09-18",
            "close_approach_date_full": "2020-Sep-18 18:29",
            "epoch_date_close_approach": 1600453740000,
            "relative_velocity": {
                "kilometers_per_second": "8.8669237549",
                "kilometers_per_hour": "31920.9255176038",
                "miles_per_hour": "19834.4217473133"
            },
            "miss_distance": {
                "astronomical": "0.0026428236",
                "lunar": "1.0280583804",
                "kilometers": "395360.781345732",
                "miles": "245665.7978538216"
            },
            "orbiting_body": "Earth"
        }
    ],
    "orbital_data": {
        "orbit_id": "3",
        "orbit_determination_date": "2020-09-28 06:25:40",
        "first_observation_date": "2020-09-22",
        "last_observation_date": "2020-09-27",
        "data_arc_in_days": 5,
        "observations_used": 27,
        "orbit_uncertainty": "7",
        "minimum_orbit_intersection": ".00226679",
        "jupiter_tisserand_invariant": "4.161",
        "epoch_osculation": "2459000.5",
        "eccentricity": ".4272846144995935",
        "semi_major_axis": "1.65500387909985",
        "inclination": "4.306578211448439",
        "ascending_node_longitude": "354.0860441485499",
        "orbital_period": "777.6728745922928",
        "perihelion_distance": ".9478461846233389",
        "perihelion_argument": "326.2475978278422",
        "aphelion_distance": "2.362161573576362",
        "perihelion_time": "2459082.230651060144",
        "mean_anomaly": "322.1652813889423",
        "mean_motion": ".4629195793780715",
        "equinox": "J2000",
        "orbit_class": {
            "orbit_class_type": "APO",
            "orbit_class_description": "Near-Earth asteroid orbits which cross the Earth’s orbit similar to that of 1862 Apollo",
            "orbit_class_range": "a (semi-major axis) > 1.0 AU; q (perihelion) < 1.017 AU"
        }
    },
    "is_sentry_object": false
}